     3.02           N: GNSS NAV DATA    M: MIXED NAV DATA   RINEX VERSION / TYPE
Alloy 6.23          Receiver Operator   20250103 000000 UTC PGM / RUN BY / DATE
GPSA    .2794D-07   .2235D-07  -.1192D-06   .5960D-07       IONOSPHERIC CORR
GPSB    .1516D+06  -.1966D+06  -.6554D+05   .3277D+06       IONOSPHERIC CORR
GAL     .1873D+03   .3281D+00   .1526D-03   .0000D+00       IONOSPHERIC CORR
QZSA    .2049D-07   .5960D-07  -.3576D-06  -.1311D-05       IONOSPHERIC CORR
QZSB    .1352D+06  -.9830D+05  -.1180D+07  -.8389D+07       IONOSPHERIC CORR
BDSA    .1863D-07   .3800D-06  -.2086D-05   .2623D-05       IONOSPHERIC CORR
BDSB    .1987D+06  -.7209D+06   .1442D+07   .6554D+05       IONOSPHERIC CORR
GPUT   .2793967724D-08  .444089210D-14 589824 2347          TIME SYSTEM CORR
GLUT  -.2793967724D-08  .000000000D+00 431118 2347          TIME SYSTEM CORR
GAUT   .1862645149D-08 -.888178420D-15 345600 2347          TIME SYSTEM CORR
BDUT   .0000000000D+00  .408562073D-13     14  991          TIME SYSTEM CORR
QZUT   .1210719347D-07  .000000000D+00   8192 2348          TIME SYSTEM CORR
GPGA   .2823071554D-08  .577315973D-14 432000 2347          TIME SYSTEM CORR
    18    18  2441     7                                    LEAP SECONDS
                                                            END OF HEADER
E 2 2025 01 03 07 20 00  .187179015484D-03  .285638179776D-11  .000000000000D+00
      .200000000000D+01 -.428125000000D+01  .355764819033D-08  .137842726608D+01
     -.257045030594D-06  .512489932589D-03  .499002635479D-05  .544060901260D+04
      .458400000000D+06  .596046447754D-07  .241590617605D+01 -.186264514923D-08
      .964578205708D+00  .236968750000D+03  .708097182953D+00 -.575988277938D-08
     -.286083345091D-09  .513000000000D+03  .234700000000D+04
      .312000000000D+01  .000000000000D+00 -.349245965481D-08 -.349245965481D-08
      .459085000000D+06
E 3 2025 01 03 07 20 00 -.164124649018D-03 -.248689957516D-11  .000000000000D+00
      .200000000000D+01 -.182187500000D+03  .296190908969D-08 -.303903701991D+01
     -.834465026855D-05  .239034765400D-03  .111926347017D-04  .544062265968D+04
      .458400000000D+06  .949949026108D-07  .312397634330D+00  .558793544769D-07
      .963600468799D+00  .996562500000D+02  .940608234463D+00 -.557773233494D-08
     -.141434462742D-09  .513000000000D+03  .234700000000D+04
      .312000000000D+01  .000000000000D+00  .931322574615D-09  .232830643654D-08
      .459085000000D+06
E 8 2025 01 03 07 20 00 -.394342583604D-03 -.632383034826D-11  .000000000000D+00
      .200000000000D+01 -.195031250000D+03  .289119185832D-08  .275001715881D+01
     -.901333987713D-05  .172398285940D-03  .105313956738D-04  .544062078285D+04
      .458400000000D+06  .167638063431D-07  .313254120200D+00 -.484287738800D-07
      .969439128460D+00  .112968750000D+03  .659802870501D+00 -.551808699333D-08
     -.207151485834D-09  .513000000000D+03  .234700000000D+04
      .312000000000D+01  .000000000000D+00 -.651925802231D-08 -.605359673500D-08
      .459085000000D+06
E30 2025 01 03 07 20 00 -.109621550655D-02 -.400603994422D-10  .000000000000D+00
      .200000000000D+01 -.125000000000D+00  .353621872628D-08  .303698920085D+00
      .726431608200D-07  .580800813623D-03  .509805977345D-05  .544060745621D+04
      .458400000000D+06 -.465661287308D-07  .241533348312D+01 -.968575477600D-07
      .961979423904D+00  .234968750000D+03  .987762980544D+00 -.569738017590D-08
     -.250724729406D-09  .513000000000D+03  .234700000000D+04
      .312000000000D+01  .000000000000D+00 -.465661287308D-09  .465661287308D-09
      .459085000000D+06
E36 2025 01 03 07 20 00 -.333811214659D-03 -.528643795406D-11  .000000000000D+00
      .200000000000D+01  .176937500000D+03  .253832001693D-08  .179110021931D+01
      .802613794804D-05  .372490379959D-03  .568106770515D-05  .544060773849D+04
      .458400000000D+06 -.558793544769D-08 -.177672526881D+01  .353902578354D-07
      .999732162263D+00  .239343750000D+03 -.100962947162D+01 -.543951229181D-08
      .341799951626D-09  .513000000000D+03  .234700000000D+04
      .312000000000D+01  .000000000000D+00  .349245965481D-08  .535510480404D-08
      .459085000000D+06
E25 2025 01 03 07 20 00  .128996325657D-04  .454747350886D-12  .000000000000D+00
      .200000000000D+01 -.387500000000D+01  .353407577987D-08  .243242866689D+01
     -.167638063431D-06  .208156066947D-03  .471621751785D-05  .544060119820D+04
      .458400000000D+06  .558793544769D-08  .241274566735D+01  .167638063431D-07
      .964183394840D+00  .241500000000D+03  .443024718809D+00 -.579952728788D-08
     -.243581574722D-09  .513000000000D+03  .234700000000D+04
      .312000000000D+01  .000000000000D+00  .116415321827D-08  .256113708019D-08
      .459085000000D+06
E 2 2025 01 03 07 10 00  .187177211046D-03  .287059265247D-11  .000000000000D+00
      .100000000000D+01 -.384375000000D+01  .355443377072D-08  .130417143739D+01
     -.232830643654D-06  .512521248311D-03  .501051545143D-05  .544060886765D+04
      .457800000000D+06  .633299350739D-07  .241590957002D+01 -.111758708954D-07
      .964578398813D+00  .236593750000D+03  .707967185126D+00 -.575273962470D-08
     -.283583240952D-09  .258000000000D+03  .234700000000D+04
      .312000000000D+01  .000000000000D+00 -.349245965481D-08  .000000000000D+00
      .459070000000D+06
E36 2025 01 03 07 10 00 -.333809875883D-03 -.527222709934D-11  .000000000000D+00
      .100000000000D+01  .176937500000D+03  .254403454068D-08  .171666262452D+01
      .803358852863D-05  .372458831407D-03  .572577118874D-05  .544060781288D+04
      .457800000000D+06 -.186264514923D-08 -.177672202114D+01  .409781932831D-07
      .999731935511D+00  .239031250000D+03 -.100957710208D+01 -.544022660727D-08
      .345371528968D-09  .258000000000D+03  .234700000000D+04
      .312000000000D+01  .000000000000D+00  .349245965481D-08  .000000000000D+00
      .459070000000D+06
R20 2025 01 03 07 45 00 -.124122947454D-03  .000000000000D+00  .459090000000D+06
     -.773950146484D+04  .126373386383D+01  .931322574615D-09  .000000000000D+00
     -.789255126953D+04 -.288609409332D+01 -.372529029846D-08  .200000000000D+01
      .230073745117D+05 -.561502456665D+00 -.931322574615D-09  .000000000000D+00
E 2 2025 01 03 07 20 00  .187178899068D-03  .287059265247D-11  .000000000000D+00
      .200000000000D+01 -.428125000000D+01  .355764819033D-08  .137842726608D+01
     -.257045030594D-06  .512489932589D-03  .499002635479D-05  .544060901260D+04
      .458400000000D+06  .596046447754D-07  .241590617605D+01 -.186264514923D-08
      .964578205708D+00  .236968750000D+03  .708097182953D+00 -.575988277938D-08
     -.286083345091D-09  .258000000000D+03  .234700000000D+04
      .312000000000D+01  .000000000000D+00 -.349245965481D-08  .000000000000D+00
      .459120000000D+06
E30 2025 01 03 07 20 00 -.109621655429D-02 -.400746102969D-10  .000000000000D+00
      .200000000000D+01 -.125000000000D+00  .353621872628D-08  .303698920085D+00
      .726431608200D-07  .580800813623D-03  .509805977345D-05  .544060745621D+04
      .458400000000D+06 -.465661287308D-07  .241533348312D+01 -.968575477600D-07
      .961979423904D+00  .234968750000D+03  .987762980544D+00 -.569738017590D-08
     -.250724729406D-09  .258000000000D+03  .234700000000D+04
      .312000000000D+01  .000000000000D+00 -.465661287308D-09  .000000000000D+00
      .459120000000D+06
E 3 2025 01 03 07 20 00 -.164126104210D-03 -.248689957516D-11  .000000000000D+00
      .200000000000D+01 -.182187500000D+03  .296190908969D-08 -.303903701991D+01
     -.834465026855D-05  .239034765400D-03  .111926347017D-04  .544062265968D+04
      .458400000000D+06  .949949026108D-07  .312397634330D+00  .558793544769D-07
      .963600468799D+00  .996562500000D+02  .940608234463D+00 -.557773233494D-08
     -.141434462742D-09  .258000000000D+03  .234700000000D+04
      .312000000000D+01  .000000000000D+00  .931322574615D-09  .000000000000D+00
      .459120000000D+06
E 8 2025 01 03 07 20 00 -.394342932850D-03 -.632383034826D-11  .000000000000D+00
      .200000000000D+01 -.195031250000D+03  .289119185832D-08  .275001715881D+01
     -.901333987713D-05  .172398285940D-03  .105313956738D-04  .544062078285D+04
      .458400000000D+06  .167638063431D-07  .313254120200D+00 -.484287738800D-07
      .969439128460D+00  .112968750000D+03  .659802870501D+00 -.551808699333D-08
     -.207151485834D-09  .258000000000D+03  .234700000000D+04
      .312000000000D+01  .000000000000D+00 -.651925802231D-08  .000000000000D+00
      .459120000000D+06
E25 2025 01 03 07 20 00  .128982937895D-04  .454747350886D-12  .000000000000D+00
      .200000000000D+01 -.387500000000D+01  .353407577987D-08  .243242866689D+01
     -.167638063431D-06  .208156066947D-03  .471621751785D-05  .544060119820D+04
      .458400000000D+06  .558793544769D-08  .241274566735D+01  .167638063431D-07
      .964183394840D+00  .241500000000D+03  .443024718809D+00 -.579952728788D-08
     -.243581574722D-09  .258000000000D+03  .234700000000D+04
      .312000000000D+01  .000000000000D+00  .116415321827D-08  .000000000000D+00
      .459120000000D+06
E36 2025 01 03 07 20 00 -.333813135512D-03 -.528643795406D-11  .000000000000D+00
      .200000000000D+01  .176937500000D+03  .253832001693D-08  .179110021931D+01
      .802613794804D-05  .372490379959D-03  .568106770515D-05  .544060773849D+04
      .458400000000D+06 -.558793544769D-08 -.177672526881D+01  .353902578354D-07
      .999732162263D+00  .239343750000D+03 -.100962947162D+01 -.543951229181D-08
      .341799951626D-09  .258000000000D+03  .234700000000D+04
      .312000000000D+01  .000000000000D+00  .349245965481D-08  .000000000000D+00
      .459120000000D+06
